[{"OBJECT_NAME":"AAC-AIS-SAT2","OBJECT_ID":"2023-084BY","EPOCH":"2026-03-09T22:09:39.097152","MEAN_MOTION":14.84898245,"ECCENTRICITY":0.00584087,"INCLINATION":98.1313,"RA_OF_ASC_NODE":206.6441,"ARG_OF_PERICENTER":61.4701,"MEAN_ANOMALY":299.2376,"EPHEMERIS_TYPE":0,"CLASSIFICATION_TYPE":"U","NORAD_CAT_ID":56996,"ELEMENT_SET_NO":999,"REV_AT_EPOCH":13864,"BSTAR":0.00055032793,"MEAN_MOTION_DOT":4.769e-5,"MEAN_MOTION_DDOT":0},{"OBJECT_NAME":"STARLINK-34225","OBJECT_ID":"2025-129C","EPOCH":"2026-03-09T10:21:52.915680","MEAN_MOTION":14.98334097,"ECCENTRICITY":0.00035263,"INCLINATION":70.0011,"RA_OF_ASC_NODE":75.3047,"ARG_OF_PERICENTER":266.6625,"MEAN_ANOMALY":93.413,"EPHEMERIS_TYPE":0,"CLASSIFICATION_TYPE":"U","NORAD_CAT_ID":64414,"ELEMENT_SET_NO":999,"REV_AT_EPOCH":4124,"BSTAR":0.00014789839,"MEAN_MOTION_DOT":1.672e-5,"MEAN_MOTION_DDOT":0}]
